[
    {
        "Altitude(m)": 604969.0889843274,
        "Argument of Periapsis(deg)": 0.0,
        "Eccentricity": 0.0,
        "Inclination(deg)": 60.0,
        "Latitude(deg)": -0.09253371384108579,
        "Longitude(deg)": 89.97752764202451,
        "Mean Anomaly(deg)": 0.0,
        "RAAN(deg)": 190.0,
        "Satellite Name": "Test1 836",
        "Satellite Number": 836,
        "Semi-Major Axis(m)": 6980739.136638005,
        "Time(s)": 0
    },
    {
        "Altitude(m)": 604900.0293685427,
        "Argument of Periapsis(deg)": 0.00010418945913296404,
        "Eccentricity": 0.0,
        "Inclination(deg)": 60.0,
        "Latitude(deg)": 0.4478922886438981,
        "Longitude(deg)": 90.24565045942512,
        "Mean Anomaly(deg)": 0.6201061454618275,
        "RAAN(deg)": 189.99957995086027,
        "Satellite Name": "Test1 836",
        "Satellite Number": 836,
        "Semi-Major Axis(m)": 6980739.136638005,
        "Time(s)": 10
    }
]